0 FENGYUN 1C DEB
1 32116U 99025CRJ 13283.47457085  .00004937  00000-0  39717-3 0  1743
2 32116 099.5225 010.4817 0229265 349.0109 010.6056 14.82271963339017
0 FENGYUN 1C DEB
1 32116U 99025CRJ 13285.43210556  .00005320  00000-0  42910-3 0  1758
2 32116 099.5300 012.8016 0228064 342.5913 016.8789 14.82298471339301
0 FENGYUN 1C DEB
1 32116U 99025CRJ 13287.05208354  .00005463  00000-0  44656-3 0  1769
2 32116 099.5359 014.7419 0224459 337.7128 021.5025 14.82318535339547
0 FENGYUN 1C DEB
1 32116U 99025CRJ 13290.08952108  .00006640  00000-0  53225-3 0  1770
2 32116 099.5315 018.3587 0228133 328.7883 030.1230 14.82369448339998
0 FENGYUN 1C DEB
1 32116U 99025CRJ 13293.46431354  .00006886  00000-0  54387-3 0  1783
2 32116 099.5243 022.3639 0231258 318.2434 040.1822 14.82420133340493
0 FENGYUN 1C DEB
1 32116U 99025CRJ 13295.48914351  .00007087  00000-0  56532-3 0  1799
2 32116 099.5283 024.7762 0228523 311.4222 046.8214 14.82451478340798
